OBJECT B                
1 51825U 22019B   25221.82947760  .00027266  00000+0  62502-3 0  9990
2 51825  97.3825 299.1637 0010070 180.2975 179.8268 15.42672941191333
